NORAD_CAT_ID,OBJECT_NAME,OBJECT_TYPE,EPOCH,MEAN_MOTION,ECCENTRICITY,INCLINATION,RA_OF_ASC_NODE,ARG_OF_PERICENTER,MEAN_ANOMALY,BSTAR,MEAN_MOTION_DOT,MEAN_MOTION_DDOT,TLE_LINE0,TLE_LINE1,TLE_LINE2,SEMIMAJOR_AXIS,PERIOD,APOGEE,PERIGEE,DECAYED
49724.0,STARLINK-3219,PAYLOAD,2022-12-03 12:13:26,15.08868481,0.0002319,53.2183,101.0282,46.4156,313.7029,-0.00046105,-7.625e-05,0.0,0 STARLINK-3219,1 49724U 21115A   22337.50933731 -.00007625  00000-0 -46105-3 0  9995,2 49724  53.2183 101.0282 0002319  46.4156 313.7029 15.08868481 56662,6917.793000000002,95.436,541.263,538.054,0.0
49724.0,STARLINK-3219,PAYLOAD,2022-12-03 15:24:13,15.08833528,0.0002092,53.2187,100.4338,46.7627,313.3540000000001,7.7964e-06,-1.64e-06,0.0,0 STARLINK-3219,1 49724U 21115A   22337.64182743 -.00000164  00000-0  77964-5 0  9998,2 49724  53.2187 100.4338 0002092  46.7627 313.3540 15.08833528 56685,6917.9,95.438,541.212,538.318,0.0
49724.0,STARLINK-3219,PAYLOAD,2022-12-04 08:53:28,15.08837702,0.0002088,53.2182,97.1625,40.5503,319.5644,8.371e-05,1.044e-05,0.0,0 STARLINK-3219,1 49724U 21115A   22338.37046473  .00001044  00000-0  83710-4 0  9990,2 49724  53.2182  97.1625 0002088  40.5503 319.5644 15.08837702 55681,6917.887,95.438,541.197,538.308,0.0
49724.0,STARLINK-3219,PAYLOAD,2022-12-04 16:50:24,15.08834921,0.0002116,53.2179,95.6763,44.1685,315.9475,5.9089e-05,6.52e-06,0.0,0 STARLINK-3219,1 49724U 21115A   22338.70166723  .00000652  00000-0  59089-4 0  9994,2 49724  53.2179  95.6763 0002116  44.1685 315.9475 15.08834921 56847,6917.896,95.438,541.225,538.297,0.0
49724.0,STARLINK-3219,PAYLOAD,2022-12-04 18:25:47,15.08832007,0.0002118,53.2182,95.3786,41.6705,318.4448,2.8737e-05,1.69e-06,0.0,0 STARLINK-3219,1 49724U 21115A   22338.76791086  .00000169  00000-0  28737-4 0  9995,2 49724  53.2182  95.3786 0002118  41.6705 318.4448 15.08832007 55749,6917.905,95.438,541.235,538.305,0.0
49724.0,STARLINK-3219,PAYLOAD,2022-12-05 07:08:51,15.08838846,0.0001994,53.2189,93.0001,44.3651,315.75,0.00012451,1.694e-05,0.0,0 STARLINK-3219,1 49724U 21115A   22339.29782354  .00001694  00000-0  12451-3 0  9991,2 49724  53.2189  93.0001 0001994  44.3651 315.7500 15.08838846 55827,6917.884,95.438,541.128,538.369,0.0
49724.0,STARLINK-3219,PAYLOAD,2022-12-05 19:51:56,15.08844537,0.0002086,53.2178,90.6227,42.6129,317.5025,0.00014826,2.072e-05,0.0,0 STARLINK-3219,1 49724U 21115A   22339.82773825  .00002072  00000-0  14826-3 0  9992,2 49724  53.2178  90.6227 0002086  42.6129 317.5025 15.08844537 57011,6917.8669999999975,95.437,541.175,538.288,0.0
49724.0,STARLINK-3219,PAYLOAD,2022-12-06 16:31:57,15.08844707,0.0001758,53.2193,86.757,35.1401,324.9707,-1.7777999999999998e-05,-5.71e-06,0.0,0 STARLINK-3219,1 49724U 21115A   22340.68886013 -.00000571  00000-0 -17778-4 0  9996,2 49724  53.2193  86.7570 0001758  35.1401 324.9707 15.08844707 56039,6917.866,95.437,540.947,538.515,0.0
49724.0,STARLINK-3219,PAYLOAD,2022-12-07 16:22:45,15.08838419,0.0002599,53.2178,82.2984,36.2135,323.9033,-5.355600000000002e-05,-1.141e-05,0.0,0 STARLINK-3219,1 49724U 21115A   22341.68246819 -.00001141  00000-0 -53556-4 0  9999,2 49724  53.2178  82.2984 0002599  36.2135 323.9033 15.08838419 57295,6917.885,95.438,541.548,537.952,0.0
49724.0,STARLINK-3219,PAYLOAD,2022-12-08 13:02:44,15.08844882,0.0002222,53.2192,78.4342,44.1178,315.9991,0.00018982,2.734e-05,0.0,0 STARLINK-3219,1 49724U 21115A   22342.54357255  .00002734  00000-0  18982-3 0  9992,2 49724  53.2192  78.4342 0002222  44.1178 315.9991 15.08844882 56311,6917.865,95.437,541.268,538.193,0.0
49724.0,STARLINK-3219,PAYLOAD,2022-12-09 00:10:26,15.08840397,0.0002517,53.2188,76.3545,8.5273,351.5761,9.5788e-05,1.236e-05,0.0,0 STARLINK-3219,1 49724U 21115A   22343.00725377  .00001236  00000-0  95788-4 0  9994,2 49724  53.2188  76.3545 0002517   8.5273 351.5761 15.08840397 57493,6917.879,95.438,541.485,538.003,0.0
49724.0,STARLINK-3219,PAYLOAD,2022-12-10 06:22:48,15.08814472,0.0002898,53.2198,70.7034,0.6956,359.404,-0.00022,-3.786e-05,0.0,0 STARLINK-3219,1 49724U 21115A   22344.26584326 -.00003786  00000-0 -22000-3 0  9990,2 49724  53.2198  70.7034 0002898   0.6956 359.4040 15.08814472 57681,6917.958000000001,95.439,541.828,537.819,0.0
49724.0,STARLINK-3219,PAYLOAD,2022-12-10 12:44:19,15.08835997,0.000195,53.219,69.5111,35.9043,324.208,-5.2881e-05,-1.13e-05,0.0,0 STARLINK-3219,1 49724U 21115A   22344.53078536 -.00001130  00000-0 -52881-4 0  9993,2 49724  53.2190  69.5111 0001950  35.9043 324.2080 15.08835997 57725,6917.893,95.438,541.107,538.409,0.0
49724.0,STARLINK-3219,PAYLOAD,2022-12-11 04:38:11,15.0874691,0.0003227,53.2197,66.5385,301.467,58.6006,0.0012615,0.00019796,0.0,0 STARLINK-3219,1 49724U 21115A   22345.19319136  .00019796  00000-0  12615-2 0  9994,2 49724  53.2197  66.5385 0003227 301.4670  58.6006 15.08746910 57821,6918.165,95.443,542.262,537.797,0.0
49724.0,STARLINK-3219,PAYLOAD,2022-12-11 12:35:06,15.08835864,0.0002177,53.2192,65.0492,40.2432,319.8721,0.00010695,1.414e-05,0.0,0 STARLINK-3219,1 49724U 21115A   22345.52438456  .00001414  00000-0  10695-3 0  9993,2 49724  53.2192  65.0492 0002177  40.2432 319.8721 15.08835864 57874,6917.893,95.438,541.264,538.252,0.0
49724.0,STARLINK-3219,PAYLOAD,2022-12-12 10:50:31,15.08831428,0.0002148,53.2195,60.8863,44.4667,315.6497,6.4234e-05,7.34e-06,0.0,0 STARLINK-3219,1 49724U 21115A   22346.45175235  .00000734  00000-0  64234-4 0  9992,2 49724  53.2195  60.8863 0002148  44.4667 315.6497 15.08831428 58019,6917.906999999997,95.438,541.258,538.286,0.0
49724.0,STARLINK-3219,PAYLOAD,2022-12-13 04:19:45,15.08839969,0.0002305,53.2189,57.6159,35.4211,324.6934,7.503100000000001e-05,9.06e-06,0.0,0 STARLINK-3219,1 49724U 21115A   22347.18038893  .00000906  00000-0  75031-4 0  9999,2 49724  53.2189  57.6159 0002305  35.4211 324.6934 15.08839969 58120,6917.88,95.438,541.34,538.151,0.0
49724.0,STARLINK-3219,PAYLOAD,2022-12-13 10:41:18,15.08832226,0.0002231,53.2185,56.4254,36.4171,323.6973,-1.4309e-05,-5.16e-06,0.0,0 STARLINK-3219,1 49724U 21115A   22347.44535722 -.00000516  00000-0 -14309-4 0  9991,2 49724  53.2185  56.4254 0002231  36.4171 323.6973 15.08832226 57055,6917.904,95.438,541.313,538.226,0.0
49724.0,STARLINK-3219,PAYLOAD,2022-12-14 12:07:28,15.08840747,0.0002298,53.2186,51.6679,30.5721,329.5405,6.9463e-05,8.17e-06,0.0,0 STARLINK-3219,1 49724U 21115A   22348.50519175  .00000817  00000-0  69463-4 0  9996,2 49724  53.2186  51.6679 0002298  30.5721 329.5405 15.08840747 58326,6917.878000000002,95.438,541.3330000000002,538.153,0.0
49724.0,STARLINK-3219,PAYLOAD,2022-12-15 07:12:06,15.08820764,0.0002021,53.2181,48.0999,21.9621,338.1458,0.00025328,3.743e-05,0.0,0 STARLINK-3219,1 49724U 21115A   22349.30008008  .00003743  00000-0  25328-3 0  9995,2 49724  53.2181  48.0999 0002021  21.9621 338.1458 15.08820764 58447,6917.939,95.439,541.202,538.406,0.0
49724.0,STARLINK-3219,PAYLOAD,2022-12-15 13:33:39,15.08835153,0.000229,53.2187,46.91,31.178,328.9348,8.9095e-05,1.13e-05,0.0,0 STARLINK-3219,1 49724U 21115A   22349.56503687  .00001130  00000-0  89095-4 0  9996,2 49724  53.2187  46.9100 0002290  31.1780 328.9348 15.08835153 58488,6917.895,95.438,541.344,538.1759999999998,0.0
49724.0,STARLINK-3219,PAYLOAD,2022-12-15 15:09:02,15.08837947,0.0002344,53.2188,46.6127,30.4478,329.665,0.00011118,1.481e-05,0.0,0 STARLINK-3219,1 49724U 21115A   22349.63127494  .00001481  00000-0  11118-3 0  9991,2 49724  53.2188  46.6127 0002344  30.4478 329.6650 15.08837947 57386,6917.887,95.438,541.373,538.13,0.0
49724.0,STARLINK-3219,PAYLOAD,2022-12-15 21:30:33,15.08849227,0.0002293,53.2187,45.4238,30.8145,329.2982,0.00014419,2.008e-05,0.0,0 STARLINK-3219,1 49724U 21115A   22349.89622614  .00002008  00000-0  14419-3 0  9996,2 49724  53.2187  45.4238 0002293  30.8145 329.2982 15.08849227 58539,6917.852,95.437,541.303,538.131,0.0
49724.0,STARLINK-3219,PAYLOAD,2022-12-16 10:13:38,15.08850951,0.0002361,53.2187,43.0452,30.8105,329.3025,0.00010748,1.423e-05,0.0,0 STARLINK-3219,1 49724U 21115A   22350.42614574  .00001423  00000-0  10748-3 0  9994,2 49724  53.2187  43.0452 0002361  30.8105 329.3025 15.08850951 57504,6917.847,95.437,541.345,538.0790000000002,0.0
49724.0,STARLINK-3219,PAYLOAD,2022-12-16 14:59:48,15.08847765,0.0002367,53.2184,42.1529,30.4303,329.6827,7.2569e-05,8.67e-06,0.0,0 STARLINK-3219,1 49724U 21115A   22350.62486788  .00000867  00000-0  72569-4 0  9991,2 49724  53.2184  42.1529 0002367  30.4303 329.6827 15.08847765 58646,6917.857,95.437,541.359,538.0840000000002,0.0
49724.0,STARLINK-3219,PAYLOAD,2022-12-17 03:42:53,15.08840663,0.0002333,53.2184,39.774,30.8966,329.2163,0.00011558,1.552e-05,0.0,0 STARLINK-3219,1 49724U 21115A   22351.15479032  .00001552  00000-0  11558-3 0  9996,2 49724  53.2184  39.7740 0002333  30.8966 329.2163 15.08840663 58723,6917.878000000002,95.438,541.357,538.129,0.0
49724.0,STARLINK-3219,PAYLOAD,2022-12-17 10:04:26,15.08840991,0.0002388,53.2178,38.5847,30.0215,330.0913,7.0565e-05,8.35e-06,0.0,0 STARLINK-3219,1 49724U 21115A   22351.41975037  .00000835  00000-0  70565-4 0  9998,2 49724  53.2178  38.5847 0002388  30.0215 330.0913 15.08840991 57658,6917.877,95.437,541.394,538.09,0.0
49724.0,STARLINK-3219,PAYLOAD,2022-12-17 14:50:36,15.08834172,0.0002387,53.2183,37.6927,30.1436,329.9693,3.0254e-05,1.93e-06,0.0,0 STARLINK-3219,1 49724U 21115A   22351.61847577  .00000193  00000-0  30254-4 0  9995,2 49724  53.2183  37.6927 0002387  30.1436 329.9693 15.08834172 58790,6917.898,95.438,541.415,538.112,0.0
49724.0,STARLINK-3219,PAYLOAD,2022-12-18 13:06:00,15.08834294,0.0002525,53.2185,33.531,29.7186,330.395,-7.782399999999999e-05,-1.527e-05,0.0,0 STARLINK-3219,1 49724U 21115A   22352.54584018 -.00001527  00000-0 -77824-4 0  9994,2 49724  53.2185  33.5310 0002525  29.7186 330.3950 15.08834294 57823,6917.898,95.438,541.51,538.016,0.0
